[{"OBJECT_NAME":"GOES 1 (SMS-C)","OBJECT_ID":"1975-100A","EPOCH":"2026-04-04T05:13:28.244928","MEAN_MOTION":1.00244469,"ECCENTRICITY":0.00047457,"INCLINATION":4.7961,"RA_OF_ASC_NODE":278.386,"ARG_OF_PERICENTER":2.5067,"MEAN_ANOMALY":225.9204,"EPHEMERIS_TYPE":0,"CLASSIFICATION_TYPE":"U","NORAD_CAT_ID":8366,"ELEMENT_SET_NO":999,"REV_AT_EPOCH":18432,"BSTAR":0,"MEAN_MOTION_DOT":2.8e-7,"MEAN_MOTION_DDOT":0},{"OBJECT_NAME":"GOES 2","OBJECT_ID":"1977-048A","EPOCH":"2026-04-04T04:19:05.648736","MEAN_MOTION":0.99399494,"ECCENTRICITY":0.00137229,"INCLINATION":6.5965,"RA_OF_ASC_NODE":293.9871,"ARG_OF_PERICENTER":51.5621,"MEAN_ANOMALY":290.2118,"EPHEMERIS_TYPE":0,"CLASSIFICATION_TYPE":"U","NORAD_CAT_ID":10061,"ELEMENT_SET_NO":999,"REV_AT_EPOCH":4553,"BSTAR":0,"MEAN_MOTION_DOT":-3.4e-7,"MEAN_MOTION_DDOT":0},{"OBJECT_NAME":"GOES 3","OBJECT_ID":"1978-062A","EPOCH":"2026-04-04T04:30:04.595616","MEAN_MOTION":0.99358267,"ECCENTRICITY":0.00021236,"INCLINATION":7.0701,"RA_OF_ASC_NODE":299.8524,"ARG_OF_PERICENTER":7.1745,"MEAN_ANOMALY":10.4406,"EPHEMERIS_TYPE":0,"CLASSIFICATION_TYPE":"U","NORAD_CAT_ID":10953,"ELEMENT_SET_NO":999,"REV_AT_EPOCH":12780,"BSTAR":0,"MEAN_MOTION_DOT":9.5e-7,"MEAN_MOTION_DDOT":0},{"OBJECT_NAME":"GOES 4","OBJECT_ID":"1980-074A","EPOCH":"2026-04-04T05:08:38.397120","MEAN_MOTION":0.99232811,"ECCENTRICITY":0.0032691,"INCLINATION":8.1459,"RA_OF_ASC_NODE":303.5193,"ARG_OF_PERICENTER":104.4974,"MEAN_ANOMALY":53.6164,"EPHEMERIS_TYPE":0,"CLASSIFICATION_TYPE":"U","NORAD_CAT_ID":11964,"ELEMENT_SET_NO":999,"REV_AT_EPOCH":12670,"BSTAR":0,"MEAN_MOTION_DOT":-7.0e-7,"MEAN_MOTION_DDOT":0},{"OBJECT_NAME":"GOES 5","OBJECT_ID":"1981-049A","EPOCH":"2026-04-04T14:02:36.496032","MEAN_MOTION":1.00206582,"ECCENTRICITY":0.0004097,"INCLINATION":9.4911,"RA_OF_ASC_NODE":316.151,"ARG_OF_PERICENTER":342.9567,"MEAN_ANOMALY":8.6846,"EPHEMERIS_TYPE":0,"CLASSIFICATION_TYPE":"U","NORAD_CAT_ID":12472,"ELEMENT_SET_NO":999,"REV_AT_EPOCH":12210,"BSTAR":0,"MEAN_MOTION_DOT":-1.57e-6,"MEAN_MOTION_DDOT":0},{"OBJECT_NAME":"GOES 6","OBJECT_ID":"1983-041A","EPOCH":"2026-04-04T05:23:29.472288","MEAN_MOTION":1.00220841,"ECCENTRICITY":0.0001716,"INCLINATION":10.3094,"RA_OF_ASC_NODE":321.7098,"ARG_OF_PERICENTER":311.2483,"MEAN_ANOMALY":245.0675,"EPHEMERIS_TYPE":0,"CLASSIFICATION_TYPE":"U","NORAD_CAT_ID":14050,"ELEMENT_SET_NO":999,"REV_AT_EPOCH":21527,"BSTAR":0,"MEAN_MOTION_DOT":-3.9e-7,"MEAN_MOTION_DDOT":0},{"OBJECT_NAME":"GOES 7","OBJECT_ID":"1987-022A","EPOCH":"2026-04-04T10:14:39.046848","MEAN_MOTION":0.99907334,"ECCENTRICITY":0.00040588,"INCLINATION":12.9934,"RA_OF_ASC_NODE":338.1585,"ARG_OF_PERICENTER":24.865,"MEAN_ANOMALY":168.6782,"EPHEMERIS_TYPE":0,"CLASSIFICATION_TYPE":"U","NORAD_CAT_ID":17561,"ELEMENT_SET_NO":999,"REV_AT_EPOCH":12622,"BSTAR":0,"MEAN_MOTION_DOT":0,"MEAN_MOTION_DDOT":0},{"OBJECT_NAME":"GOES 8","OBJECT_ID":"1994-022A","EPOCH":"2026-04-03T23:34:38.525376","MEAN_MOTION":0.98906605,"ECCENTRICITY":0.00058518,"INCLINATION":14.3674,"RA_OF_ASC_NODE":14.2407,"ARG_OF_PERICENTER":25.8156,"MEAN_ANOMALY":163.3379,"EPHEMERIS_TYPE":0,"CLASSIFICATION_TYPE":"U","NORAD_CAT_ID":23051,"ELEMENT_SET_NO":999,"REV_AT_EPOCH":12339,"BSTAR":0,"MEAN_MOTION_DOT":-1.13e-6,"MEAN_MOTION_DDOT":0},{"OBJECT_NAME":"GOES 9","OBJECT_ID":"1995-025A","EPOCH":"2026-04-04T12:33:59.512608","MEAN_MOTION":0.98799732,"ECCENTRICITY":0.00027776,"INCLINATION":13.8983,"RA_OF_ASC_NODE":15.0896,"ARG_OF_PERICENTER":195.7774,"MEAN_ANOMALY":285.3709,"EPHEMERIS_TYPE":0,"CLASSIFICATION_TYPE":"U","NORAD_CAT_ID":23581,"ELEMENT_SET_NO":999,"REV_AT_EPOCH":11203,"BSTAR":0,"MEAN_MOTION_DOT":-1.64e-6,"MEAN_MOTION_DDOT":0},{"OBJECT_NAME":"GOES 10","OBJECT_ID":"1997-019A","EPOCH":"2026-04-04T03:49:38.799840","MEAN_MOTION":0.99127384,"ECCENTRICITY":0.00300222,"INCLINATION":13.0402,"RA_OF_ASC_NODE":21.6274,"ARG_OF_PERICENTER":239.6985,"MEAN_ANOMALY":317.4901,"EPHEMERIS_TYPE":0,"CLASSIFICATION_TYPE":"U","NORAD_CAT_ID":24786,"ELEMENT_SET_NO":999,"REV_AT_EPOCH":10533,"BSTAR":0,"MEAN_MOTION_DOT":-2.61e-6,"MEAN_MOTION_DDOT":0},{"OBJECT_NAME":"GOES 11","OBJECT_ID":"2000-022A","EPOCH":"2026-04-03T04:59:30.692832","MEAN_MOTION":0.99045354,"ECCENTRICITY":0.0005087,"INCLINATION":11.6444,"RA_OF_ASC_NODE":47.1551,"ARG_OF_PERICENTER":263.0696,"MEAN_ANOMALY":108.2584,"EPHEMERIS_TYPE":0,"CLASSIFICATION_TYPE":"U","NORAD_CAT_ID":26352,"ELEMENT_SET_NO":999,"REV_AT_EPOCH":5173,"BSTAR":0,"MEAN_MOTION_DOT":-2.85e-6,"MEAN_MOTION_DDOT":0},{"OBJECT_NAME":"GOES 12","OBJECT_ID":"2001-031A","EPOCH":"2026-04-04T13:36:31.495680","MEAN_MOTION":0.99140752,"ECCENTRICITY":0.0008476,"INCLINATION":12.0527,"RA_OF_ASC_NODE":37.8809,"ARG_OF_PERICENTER":302.3959,"MEAN_ANOMALY":229.5798,"EPHEMERIS_TYPE":0,"CLASSIFICATION_TYPE":"U","NORAD_CAT_ID":26871,"ELEMENT_SET_NO":999,"REV_AT_EPOCH":9003,"BSTAR":0,"MEAN_MOTION_DOT":-2.03e-6,"MEAN_MOTION_DDOT":0},{"OBJECT_NAME":"EWS-G1 (GOES 13)","OBJECT_ID":"2006-018A","EPOCH":"2026-04-04T00:32:21.915168","MEAN_MOTION":0.98784884,"ECCENTRICITY":0.00619097,"INCLINATION":4.3411,"RA_OF_ASC_NODE":77.3073,"ARG_OF_PERICENTER":274.968,"MEAN_ANOMALY":293.3718,"EPHEMERIS_TYPE":0,"CLASSIFICATION_TYPE":"U","NORAD_CAT_ID":29155,"ELEMENT_SET_NO":999,"REV_AT_EPOCH":4251,"BSTAR":0,"MEAN_MOTION_DOT":1.8e-7,"MEAN_MOTION_DDOT":0},{"OBJECT_NAME":"GOES 14","OBJECT_ID":"2009-033A","EPOCH":"2026-04-04T04:35:38.555808","MEAN_MOTION":1.00111592,"ECCENTRICITY":0.00018234,"INCLINATION":1.4992,"RA_OF_ASC_NODE":83.9394,"ARG_OF_PERICENTER":295.6803,"MEAN_ANOMALY":65.207,"EPHEMERIS_TYPE":0,"CLASSIFICATION_TYPE":"U","NORAD_CAT_ID":35491,"ELEMENT_SET_NO":999,"REV_AT_EPOCH":584,"BSTAR":0,"MEAN_MOTION_DOT":4.9e-7,"MEAN_MOTION_DDOT":0},{"OBJECT_NAME":"EWS-G2 (GOES 15)","OBJECT_ID":"2010-008A","EPOCH":"2026-04-04T04:31:49.429056","MEAN_MOTION":1.00271551,"ECCENTRICITY":0.00032997,"INCLINATION":1.0837,"RA_OF_ASC_NODE":84.3159,"ARG_OF_PERICENTER":17.6509,"MEAN_ANOMALY":221.7739,"EPHEMERIS_TYPE":0,"CLASSIFICATION_TYPE":"U","NORAD_CAT_ID":36411,"ELEMENT_SET_NO":999,"REV_AT_EPOCH":5889,"BSTAR":0,"MEAN_MOTION_DOT":2.2e-7,"MEAN_MOTION_DDOT":0},{"OBJECT_NAME":"GOES 16","OBJECT_ID":"2016-071A","EPOCH":"2026-04-04T05:26:36.673440","MEAN_MOTION":1.00272227,"ECCENTRICITY":0.00018719,"INCLINATION":0.1738,"RA_OF_ASC_NODE":85.299,"ARG_OF_PERICENTER":245.6791,"MEAN_ANOMALY":198.5207,"EPHEMERIS_TYPE":0,"CLASSIFICATION_TYPE":"U","NORAD_CAT_ID":41866,"ELEMENT_SET_NO":999,"REV_AT_EPOCH":3436,"BSTAR":0,"MEAN_MOTION_DOT":-9.1e-7,"MEAN_MOTION_DDOT":0},{"OBJECT_NAME":"GOES 17","OBJECT_ID":"2018-022A","EPOCH":"2026-04-04T05:30:58.754016","MEAN_MOTION":1.00271726,"ECCENTRICITY":0.0001221,"INCLINATION":0.748,"RA_OF_ASC_NODE":86.8133,"ARG_OF_PERICENTER":256.8969,"MEAN_ANOMALY":202.0833,"EPHEMERIS_TYPE":0,"CLASSIFICATION_TYPE":"U","NORAD_CAT_ID":43226,"ELEMENT_SET_NO":999,"REV_AT_EPOCH":2968,"BSTAR":0,"MEAN_MOTION_DOT":-1.83e-6,"MEAN_MOTION_DDOT":0}]
